OBJECT_NAME,OBJECT_ID,EPOCH,MEAN_MOTION,ECCENTRICITY,INCLINATION,RA_OF_ASC_NODE,ARG_OF_PERICENTER,MEAN_ANOMALY,EPHEMERIS_TYPE,CLASSIFICATION_TYPE,NORAD_CAT_ID,ELEMENT_SET_NO,REV_AT_EPOCH,BSTAR,MEAN_MOTION_DOT,MEAN_MOTION_DDOT
APRIZESAT 2,2004-025A,2026-07-07T22:48:05.566752,14.38045201,.010543,98.1034,353.7569,186.7054,173.2730,0,U,28366,999,15462,.65179E-4,.168E-5,0
SAUDICOMSAT 1,2004-025D,2026-07-07T23:36:30.893760,14.55489966,.0031305,98.5773,199.6765,321.6527,38.2444,0,U,28369,999,16715,.67358E-4,.245E-5,0
SAUDICOMSAT 2,2004-025E,2026-07-07T23:09:41.844096,14.49991822,.0055123,98.6640,201.7987,195.6285,164.3209,0,U,28370,999,16311,.47978E-4,.14E-5,0
APRIZESAT 1,2004-025G,2026-07-07T23:18:17.329824,14.51789090,.0045812,98.6305,200.2621,92.1567,268.4874,0,U,28372,999,16492,.57631E-4,.186E-5,0
NANOSAT-1,2004-049B,2026-07-08T04:37:33.549024,14.80201662,.0003266,98.2301,326.3706,208.5874,151.5158,0,U,28493,999,15855,.10991E-3,.78E-5,0
SAUDICOMSAT 7,2007-012C,2026-07-07T20:38:42.652032,14.66131230,.0056673,98.3791,163.4163,130.8041,229.8098,0,U,31119,999,2546,.80931E-4,.402E-5,0
SAUDICOMSAT 6,2007-012E,2026-07-07T21:18:29.725056,14.62580128,.0070367,98.4110,156.7911,262.2766,97.0440,0,U,31121,999,2321,.70217E-4,.315E-5,0
SAUDICOMSAT 5,2007-012H,2026-07-07T20:56:55.567104,14.68185620,.004859,98.3502,164.1719,61.3738,299.2341,0,U,31124,999,2663,.10948E-3,.588E-5,0
SAUDICOMSAT 3,2007-012J,2026-07-07T20:46:20.102016,14.70741724,.00388,98.3156,164.7113,348.7172,11.3160,0,U,31125,999,2786,.111E-3,.63E-5,0
SAUDICOMSAT 4,2007-012L,2026-07-07T20:33:10.247904,14.64530915,.0063042,98.3996,161.8498,192.6754,167.2866,0,U,31127,999,2431,.68248E-4,.318E-5,0
APRIZESAT 4,2009-041D,2026-07-07T18:08:48.845760,14.83907056,.0041931,98.1405,264.4862,254.3409,105.3176,0,U,35684,999,91441,.71454E-4,.543E-5,0
APRIZESAT 3,2009-041F,2026-07-07T23:07:25.275936,14.96294757,.006135,98.2084,343.1857,359.6667,0.4501,0,U,35686,999,91948,.97724E-4,.1077E-4,0
S-NET D,2018-014G,2026-07-07T18:44:46.358304,15.16872537,.0006668,97.5338,93.4434,316.9276,43.1435,0,U,43186,999,46188,.13032E-3,.2498E-4,0
S-NET B,2018-014H,2026-07-07T19:01:50.778048,15.16843316,.0007191,97.5345,93.4425,310.8381,49.2228,0,U,43187,999,46188,.14261E-3,.2738E-4,0
S-NET A,2018-014J,2026-07-08T01:02:57.579072,15.16882407,.00071,97.5353,93.9045,310.6146,49.4469,0,U,43188,999,46192,.13284E-3,.2549E-4,0
S-NET C,2018-014K,2026-07-07T19:07:34.972320,15.16834866,.0008248,97.5371,93.7369,301.2587,58.7837,0,U,43189,999,46043,.14656E-3,.2816E-4,0
SALSAT,2020-068K,2026-07-07T22:39:07.910784,15.30102262,.000847,97.8859,193.2762,220.3352,139.7260,0,U,46495,999,31853,.15694E-3,.449E-4,0
OOV-CUBE (TUBSAT-30),2024-128F,2026-07-06T10:01:45.352992,15.02848993,.00422051,61.9939,158.5121,138.0070,222.4270,0,U,60240,999,10900,.16592493E-3,.2062E-4,0
LPNTSAT-001 (IOD-1),2026-065A,2026-07-06T23:25:56.559648,15.18641368,.00148125,97.3994,68.0659,298.4631,61.5110,0,U,68408,999,1526,.10620841E-3,.2137E-4,0
